      2.10          N: GNSS NAV DATA                        RINEX VERSION / TYPE
fic2rin                                 12/27/2019 00:20:14 PGM / RUN BY / DATE
                                                            END OF HEADER
 1 19 12 26 10  0  0.0-2.419985830784e-04-1.227817847393e-11 0.000000000000e+00
    9.500000000000e+01-1.593125000000e+02 3.947307278335e-09-2.732702641200e+00
   -8.294358849525e-06 9.221472195350e-03 7.869675755501e-06 5.153647079468e+03
    3.816000000000e+05 5.401670932770e-08-4.543446955203e-01-1.583248376846e-07
    9.785840809949e-01 2.354687500000e+02 7.601565330565e-01-7.712464112230e-09
   -1.360770967287e-10 1.000000000000e+00 2.085000000000e+03 0.000000000000e+00
    2.400000000000e+00 0.000000000000e+00 5.587935447693e-09 9.500000000000e+01
    3.744000000000e+05 4.000000000000e+00
 3 19 12 26 10  0  0.0-5.991617217660e-05-7.162270776462e-12 0.000000000000e+00
    2.000000000000e+01-2.162500000000e+01 4.299821961987e-09 2.382400658996e+00
   -1.173466444016e-06 2.597092534415e-03 1.095421612263e-05 5.153646972656e+03
    3.816000000000e+05-6.146728992462e-08 5.864996428643e-01 0.000000000000e+00
    9.646260709249e-01 1.677500000000e+02 7.776180446728e-01-7.656747505696e-09
    6.014536243862e-10 1.000000000000e+00 2.085000000000e+03 0.000000000000e+00
    2.400000000000e+00 0.000000000000e+00 2.328306436539e-09 2.000000000000e+01
    3.744000000000e+05 4.000000000000e+00
 2 19 12 26 10  0  0.0-3.737257793546e-04-7.275957614183e-12 0.000000000000e+00
    4.200000000000e+01-1.589062500000e+02 4.389468553270e-09-2.438453080570e+00
   -7.994472980499e-06 1.962210028432e-02 5.526468157768e-06 5.153608663559e+03
    3.816000000000e+05 2.570450305939e-07-5.274539533857e-01 7.636845111847e-08
    9.575928933020e-01 2.646875000000e+02-1.686072058046e+00-7.752108620726e-09
   -6.678849629467e-11 1.000000000000e+00 2.085000000000e+03 0.000000000000e+00
    2.400000000000e+00 0.000000000000e+00-1.769512891769e-08 4.200000000000e+01
    3.744000000000e+05 4.000000000000e+00
 5 19 12 26 10  0  0.0-5.214009433985e-06-5.684341886081e-13 0.000000000000e+00
    8.100000000000e+01-3.025000000000e+01 4.665194324069e-09 1.357886837094e-01
   -1.411885023117e-06 5.782275577076e-03 1.039169728756e-05 5.153571195602e+03
    3.816000000000e+05 1.862645149231e-08 5.567228567588e-01 4.842877388000e-08
    9.515354747233e-01 1.727187500000e+02 8.036817077005e-01-7.964260314838e-09
    4.810914679621e-10 1.000000000000e+00 2.085000000000e+03 0.000000000000e+00
    2.400000000000e+00 0.000000000000e+00-1.117587089539e-08 8.100000000000e+01
    3.744000000000e+05 4.000000000000e+00
 7 19 12 26 10  0  0.0-1.782239414752e-04-8.185452315956e-12 0.000000000000e+00
    4.600000000000e+01 1.237500000000e+01 4.415898225600e-09 2.845324549817e+00
    5.215406417847e-07 1.321715000086e-02 1.051090657711e-05 5.153710023880e+03
    3.816000000000e+05-3.725290298462e-09 2.693198634831e+00-2.011656761169e-07
    9.542144054201e-01 1.713750000000e+02-2.420185388447e+00-7.571029649489e-09
   -6.560987577182e-10 1.000000000000e+00 2.085000000000e+03 0.000000000000e+00
    2.400000000000e+00 0.000000000000e+00-1.117587089539e-08 4.600000000000e+01
    3.744000000000e+05 4.000000000000e+00
 8 19 12 26 10  0  0.0-1.805135980248e-05-1.250555214938e-12 0.000000000000e+00
    2.400000000000e+01 4.031250000000e+00 4.619120976358e-09-3.310788904676e-01
    2.086162567139e-07 4.913934273645e-03-5.867332220078e-07 5.153601726532e+03
    3.816000000000e+05 3.166496753693e-08-1.523136421934e+00-8.754432201385e-08
    9.698478531417e-01 3.934375000000e+02-2.217606692677e-01-8.547856052515e-09
    8.321775206769e-11 1.000000000000e+00 2.085000000000e+03 0.000000000000e+00
    2.400000000000e+00 0.000000000000e+00 5.122274160385e-09 2.400000000000e+01
    3.744000000000e+05 4.000000000000e+00
 6 19 12 26 10  0  0.0-1.645102165639e-04-1.080024958355e-11 0.000000000000e+00
    6.600000000000e+01-1.565000000000e+02 4.034810923213e-09-2.378707510601e+00
   -7.988885045052e-06 1.715657417662e-03 6.882473826408e-06 5.153728307724e+03
    3.816000000000e+05 3.352761268616e-08-4.626040193943e-01 3.725290298462e-08
    9.781793793375e-01 2.567500000000e+02-1.200537249801e+00-7.813539751008e-09
   -1.782217093638e-10 1.000000000000e+00 2.085000000000e+03 0.000000000000e+00
    2.400000000000e+00 0.000000000000e+00 4.656612873077e-09 6.600000000000e+01
    3.744000000000e+05 4.000000000000e+00
 4 19 12 26 10  0  0.0-2.549123018980e-05-5.002220859751e-12 0.000000000000e+00
    1.050000000000e+02 7.500000000000e-01 4.937348517527e-09-1.451439871874e+00
   -4.284083843231e-08 4.226837772876e-04 5.090609192848e-06 5.153720485687e+03
    3.816000000000e+05-7.450580596924e-09 1.664844859242e+00-4.470348358154e-08
    9.593413715274e-01 2.808750000000e+02-2.713301395300e+00-8.061407218540e-09
   -9.178953768839e-11 1.000000000000e+00 2.085000000000e+03 0.000000000000e+00
    2.400000000000e+00 6.300000000000e+01-4.190951585770e-09 8.730000000000e+02
    3.744000000000e+05 4.000000000000e+00
22 19 12 26 10  0  0.0-7.793656550348e-04-1.705302565824e-12 0.000000000000e+00
    2.600000000000e+01-2.359375000000e+01 5.091997816434e-09-1.489244186872e+00
   -1.188367605209e-06 6.934503791854e-03 1.120381057262e-05 5.153616874695e+03
    3.816000000000e+05-2.030283212662e-07 5.056496670468e-01 1.396983861923e-07
    9.294659525591e-01 1.458750000000e+02-1.250403725203e+00-8.155339702633e-09
    5.689522705744e-10 1.000000000000e+00 2.085000000000e+03 0.000000000000e+00
    2.400000000000e+00 0.000000000000e+00-1.816079020500e-08 2.600000000000e+01
    3.744000000000e+05 4.000000000000e+00
30 19 12 26 10  0  0.0-1.145955175161e-04-8.640199666843e-12 0.000000000000e+00
    1.500000000000e+01 1.253125000000e+01 4.854130765459e-09 2.825086178305e+00
    5.830079317093e-07 4.159921896644e-03 1.055933535099e-05 5.153710201263e+03
    3.816000000000e+05-5.774199962616e-08 2.718187785992e+00-6.705522537231e-08
    9.396033223870e-01 1.641250000000e+02-2.923264525564e+00-7.943188008521e-09
   -6.700279093519e-10 1.000000000000e+00 2.085000000000e+03 0.000000000000e+00
    2.400000000000e+00 0.000000000000e+00 3.725290298462e-09 1.500000000000e+01
    3.744000000000e+05 4.000000000000e+00
25 19 12 26 10  0  0.0-1.702364534140e-05 4.547473508865e-13 0.000000000000e+00
    1.600000000000e+01 1.382500000000e+02 4.011238512756e-09 1.879321046431e+00
    7.161870598793e-06 8.794778725132e-03 8.078292012215e-06 5.153624584198e+03
    3.816000000000e+05-1.788139343262e-07-2.553748489532e+00-1.285225152969e-07
    9.678952364016e-01 2.262500000000e+02 8.857097919280e-01-7.861041729656e-09
    1.978653847446e-10 1.000000000000e+00 2.085000000000e+03 0.000000000000e+00
    2.400000000000e+00 0.000000000000e+00 5.587935447693e-09 1.600000000000e+01
    3.744000000000e+05 4.000000000000e+00
23 19 12 26 10  0  0.0-1.471787691116e-04 2.387423592154e-12 0.000000000000e+00
    1.600000000000e+01 2.718750000000e+00 5.282362888760e-09-2.005008055513e+00
    2.607703208923e-08 1.327774417587e-02 4.531815648079e-06 5.153685474396e+03
    3.816000000000e+05 1.527369022369e-07 1.610977756398e+00-1.098960638046e-07
    9.428330256485e-01 2.784375000000e+02-2.213031967904e+00-8.092479941415e-09
    1.071473202588e-10 1.000000000000e+00 2.085000000000e+03 0.000000000000e+00
    2.400000000000e+00 0.000000000000e+00-2.048909664154e-08 1.600000000000e+01
    3.744000000000e+05 4.000000000000e+00
15 19 12 26 10  0  0.0-2.630357630551e-04 2.614797267597e-12 0.000000000000e+00
    1.500000000000e+01 1.037500000000e+01 5.675950711844e-09-1.439402287031e+00
    6.277114152908e-07 1.211514975876e-02 4.393979907036e-06 5.153602516174e+03
    3.816000000000e+05 2.570450305939e-07 1.532565321017e+00 1.117587089539e-08
    9.275491202582e-01 2.747187500000e+02 8.543440997753e-01-8.468924193258e-09
    1.535778257043e-10 1.000000000000e+00 2.085000000000e+03 0.000000000000e+00
    2.400000000000e+00 0.000000000000e+00-1.117587089539e-08 1.500000000000e+01
    3.744000000000e+05 4.000000000000e+00
11 19 12 26 10  0  0.0-4.084082320333e-04 1.091393642128e-11 0.000000000000e+00
    1.500000000000e+01-1.295312500000e+02 5.734524580252e-09 2.749670589126e+00
   -6.712973117828e-06 1.594772993121e-02 1.141801476479e-06 5.152862623215e+03
    3.816000000000e+05 2.495944499969e-07-9.189528717214e-01 1.154839992523e-07
    9.115055478419e-01 3.301875000000e+02 1.969445358184e+00-8.664289473863e-09
   -3.014411276615e-10 1.000000000000e+00 2.085000000000e+03 0.000000000000e+00
    2.400000000000e+00 0.000000000000e+00-1.210719347000e-08 1.500000000000e+01
    3.744000000000e+05 4.000000000000e+00
10 19 12 26 10  0  0.0-1.863148063421e-04-1.398348103976e-11 0.000000000000e+00
    8.700000000000e+01-1.215625000000e+01 4.406254966777e-09 1.538959026426e+00
   -5.215406417847e-07 5.235803779215e-03 1.080706715584e-05 5.153666994095e+03
    3.816000000000e+05-5.029141902924e-08 5.833784120525e-01 9.499490261078e-08
    9.646080316821e-01 1.751250000000e+02-2.718752446038e+00-7.831040479983e-09
    5.100212444320e-10 1.000000000000e+00 2.085000000000e+03 0.000000000000e+00
    2.400000000000e+00 0.000000000000e+00 1.862645149231e-09 8.700000000000e+01
    3.744000000000e+05 4.000000000000e+00
 9 19 12 26 10  0  0.0-1.174188219011e-04-9.208633855451e-12 0.000000000000e+00
    7.500000000000e+01 4.062500000000e+00 5.155214735386e-09-4.254832279986e-02
    1.322478055954e-07 1.725053763948e-03 4.952773451805e-06 5.153525056839e+03
    3.816000000000e+05-5.215406417847e-08 1.618115010402e+00 0.000000000000e+00
    9.520171770739e-01 2.787187500000e+02 1.692035013079e+00-8.211056309168e-09
   -2.500104139373e-12 1.000000000000e+00 2.085000000000e+03 0.000000000000e+00
    2.400000000000e+00 0.000000000000e+00 1.396983861923e-09 7.500000000000e+01
    3.744000000000e+05 4.000000000000e+00
